THEMIS E                
1 30798U 07004E   24185.56407969 -.00000143  00000+0  00000+0 0  9991
2 30798   7.4212 280.3168 8334252 312.0720  55.1285  0.87833114 59640
FGRST (GLAST)           
1 33053U 08029A   24188.90593644  .00003848  00000+0  17397-3 0  9998
2 33053  25.5832  73.8706 0009802 263.4419  96.5002 15.16976232887579
WISE                    
1 36119U 09071A   24189.19137303  .00053090  00000+0  49372-3 0  9992
2 36119  97.1409 226.0868 0003163 108.9157 251.2448 15.67248156811391
TDRS 11                 
1 39070U 13004A   24188.95250719  .00000074  00000+0  00000+0 0  9997
2 39070   2.7543  12.3835 0006646  53.9121  27.8037  1.00265069 39577
TDRS 12                 
1 39504U 14004A   24188.89770179 -.00000274  00000+0  00000+0 0  9993
2 39504   3.5543   3.8831 0003698 189.5486  14.0908  1.00277075 37150
GPM-CORE                
1 39574U 14009C   24188.94181371  .00009197  00000+0  20226-3 0  9999
2 39574  64.9838 166.9324 0006592 258.8799 101.1600 15.44514609588109
MMS 1                   
1 40482U 15011A   24189.25001157 -.00001779  00000+0  00000+0 0  9994
2 40482  49.3058   9.7077 9084336 147.8999  17.7928  0.28400311 15435
MMS 2                   
1 40483U 15011B   24189.25001157 -.00001779  00000+0  00000+0 0  9995
2 40483  49.3058   9.7077 9084412 147.9000  17.5879  0.28396682 15411
MMS 3                   
1 40484U 15011C   24189.25001157 -.00001779  00000+0  00000+0 0  9996
2 40484  49.3053   9.7087 9084407 147.8996  17.6666  0.28396475 15410
MMS 4                   
1 40485U 15011D   24189.25001157 -.00001782  00000+0  00000+0 0  9991
2 40485  49.3073   9.7063 9085265 147.9015  17.0244  0.28359719 15419
TDRS 13                 
1 42915U 17047A   24188.90361934 -.00000100  00000+0  00000+0 0  9998
2 42915   3.6243 345.0674 0017493 118.0066 136.1272  1.00272167 25225
NOAA 20 (JPSS-1)        
1 43013U 17073A   24189.14791467  .00000101  00000+0  68673-4 0  9997
2 43013  98.7065 126.7359 0001802 127.3301 232.8040 14.19539926343737
STARLINK-31978          
1 60016U 24111A   24188.91667824 -.02162893  00000+0 -54543-1 0  9992
2 60016  53.1594  39.1065 0000843  49.1639 169.3638 15.43113698  5320
STARLINK-31987          
1 60017U 24111B   24189.25001157 -.00035917  00000+0 -63974-3 0  9996
2 60017  53.1598  37.4784 0001043 104.5235 190.9217 15.49351286  5433
STARLINK-31984          
1 60018U 24111C   24189.25001157 -.00061422  00000+0 -11032-2 0  9994
2 60018  53.1600  37.4738 0000455  79.2313 218.2383 15.49355974  5322
STARLINK-31986          
1 60019U 24111D   24188.91667824 -.00003532  00000+0 -55466-4 0  9995
2 60019  53.1597  39.0651 0000938  76.4451 162.8204 15.49317919  4735
STARLINK-31883          
1 60020U 24111E   24188.91667824 -.02162401  00000+0 -50226-1 0  9996
2 60020  53.1595  39.0717 0001061  79.0914 156.6278 15.45506886  4730
STARLINK-31967          
1 60021U 24111F   24188.91667824 -.00017877  00000+0 -31390-3 0  9994
2 60021  53.1599  39.0560 0000911  63.1468 180.1206 15.49327411  4891
STARLINK-31982          
1 60022U 24111G   24188.91667824 -.02164036  00000+0 -45766-1 0  9997
2 60022  53.1598  39.0533 0000774  81.0512 163.7555 15.48195599  4744
STARLINK-31992          
1 60023U 24111H   24189.25001157 -.00050660  00000+0 -90712-3 0  9995
2 60023  53.1600  37.4488 0000770  65.8989 243.5910 15.49358919  5497
STARLINK-31990          
1 60024U 24111J   24189.25001157 -.00046353  00000+0 -82916-3 0  9997
2 60024  53.1600  37.4533 0000931  77.6432 229.8549 15.49348568  5485
STARLINK-31864          
1 60025U 24111K   24188.09336445  .00252912  00000+0  17696-2 0  9990
2 60025  53.1501  42.1986 0003466 283.7932  76.2701 15.72970667  5315
STARLINK-31939          
1 60026U 24111L   24188.91667824 -.00003701  00000+0 -58536-4 0  9992
2 60026  53.1599  39.0359 0000086 336.8161 276.4956 15.49310621  4734
STARLINK-32012          
1 60027U 24111M   24188.91667824 -.02164625  00000+0 -47590-1 0  9993
2 60027  53.1597  39.0352 0001007  80.6037 172.8094 15.47089957  4731
STARLINK-32008          
1 60028U 24111N   24189.19318488 -.00009666  00000+0 -16620-3 0  9997
2 60028  53.1624  37.7038 0001796  28.3014 331.8093 15.49262911  5471
STARLINK-32006          
1 60029U 24111P   24188.91667824  .00031923  00000+0  58013-3 0  9999
2 60029  53.1599  39.0232 0000693 112.2658 147.0740 15.49286911  4736
STARLINK-32011          
1 60030U 24111Q   24189.25001157 -.01481303  00000+0 -39456-1 0  9992
2 60030  53.1596  37.4776 0001095  79.5936 215.4176 15.40732182  5484
STARLINK-31878          
1 60031U 24111R   24189.25001157 -.00522124  10264-3 -11000-2 0  9992
2 60031  53.1439  33.1247 0004916  85.1563 165.2796 15.98054040  5316
STARLINK-32017          
1 60032U 24111S   24188.91667824 -.00074548  00000+0 -13427-2 0  9994
2 60032  53.1599  39.0152 0000893  91.3322 171.9784 15.49360229  4681
STARLINK-31998          
1 60033U 24111T   24189.25001157 -.00059116  00000+0 -10618-2 0  9997
2 60033  53.1602  37.4155 0000596  94.1511 231.4143 15.49339007  5393
STARLINK-32005          
1 60034U 24111U   24188.91667824 -.00026316  00000+0 -46641-3 0  9991
2 60034  53.1599  39.0070 0000972  64.0040 203.3321 15.49326292  4739
STARLINK-31981          
1 60035U 24111V   24188.91667824 -.00045936  00000+0 -82181-3 0  9990
2 60035  53.1599  39.0027 0000876  80.7778 188.5574 15.49341062  4734
STARLINK-31985          
1 60036U 24111W   24188.91667824 -.00016650  00000+0 -29193-3 0  9996
2 60036  53.1601  38.9977 0001052  99.0099 172.3542 15.49310981  4908
STARLINK-31918          
1 60037U 24111X   24188.91667824 -.00050242  00000+0 -90022-3 0  9991
2 60037  53.1600  38.9939 0000909  77.5905 195.7621 15.49336902  4732
STARLINK-11129 [DTC]    
1 60038U 24112A   24189.01648281  .00110447  00000+0  67427-3 0  9996
2 60038  53.1609  39.1983 0001229  57.9532 302.1608 15.76587490  5457
STARLINK-11140 [DTC]    
1 60039U 24112B   24188.75001157  .00093599  00000+0  57594-3 0  9994
2 60039  53.1565  40.4919 0001381  26.4306 273.1332 15.76477266  5452
STARLINK-11122 [DTC]    
1 60040U 24112C   24188.88545214 -.00111148  00000+0 -68516-3 0  9996
2 60040  53.1572  39.7893 0001089 325.2724  34.8225 15.76690341  5019
STARLINK-11149 [DTC]    
1 60041U 24112D   24188.88340838 -.00049971  00000+0 -30608-3 0  9997
2 60041  53.1566  39.7777 0000244 164.3221 195.7808 15.76511557  5015
STARLINK-11120 [DTC]    
1 60042U 24112E   24188.88122536 -.00008619  00000+0 -48587-4 0  9991
2 60042  53.1596  39.7674 0000941 102.4396 257.6730 15.76789390  5019
STARLINK-11086 [DTC]    
1 60043U 24112F   24188.87919873  .00091811  00000+0  55851-3 0  9994
2 60043  53.1587  39.7551 0002023  74.1887 285.9356 15.76743985  5015
STARLINK-11148 [DTC]    
1 60044U 24112G   24189.00382710  .00055344  00000+0  33983-3 0  9998
2 60044  53.1567  39.1009 0000894  38.4286 321.6798 15.76736043  5459
STARLINK-11116 [DTC]    
1 60045U 24112H   24188.87499207  .00120265  00000+0  72535-3 0  9994
2 60045  53.1578  39.7222 0000555  84.7043 275.4041 15.76825331  5438
STARLINK-11155 [DTC]    
1 60046U 24112J   24188.87287269  .00098923  00000+0  59994-3 0  9997
2 60046  53.1581  39.7076 0000795 151.1168 208.9897 15.76783613  5013
STARLINK-11163 [DTC]    
1 60047U 24112K   24188.87084937  .00113054  00000+0  68768-3 0  9997
2 60047  53.1584  39.6954 0002037  92.3317 267.7937 15.76658937  5012
STARLINK-11135 [DTC]    
1 60048U 24112L   24187.86935605  .00144726  00000+0  91234-3 0  9997
2 60048  53.1602  44.0944 0001206 112.9283 247.1864 15.75732858  4868
STARLINK-11151 [DTC]    
1 60049U 24112M   24188.99333295  .00133514  00000+0  80289-3 0  9991
2 60049  53.1583  39.0322 0001075 102.1284 257.9857 15.76844387  5456
STARLINK-11137 [DTC]    
1 60050U 24112N   24188.86446476  .00014873  00000+0  95276-4 0  9994
2 60050  53.1577  39.6509 0001328  88.1495 271.9678 15.76591702  5011
STARLINK-31811          
1 60051U 24112P   24188.87522905  .00004826  00000+0  94708-4 0  9994
2 60051  53.1598  41.1720 0000277  67.4870 292.6168 15.49323967  4993
STARLINK-31775          
1 60052U 24112Q   24188.87557863 -.00003218  00000+0 -49850-4 0  9990
2 60052  53.1598  41.1722 0000801  83.8727 276.2374 15.49300627  4997
STARLINK-31793          
1 60053U 24112R   24188.91667824  .00054159  00000+0  13559-2 0  9998
2 60053  53.1591  41.0998 0001871  83.9249  84.4925 15.39584525  5434
STARLINK-31735          
1 60054U 24112S   24189.00287192  .00010041  00000+0  18826-3 0  9991
2 60054  53.1595  40.5465 0000124  48.7339 311.3680 15.49321780  5276
STARLINK-31788          
1 60055U 24112T   24188.87455087  .00012485  00000+0  23209-3 0  9991
2 60055  53.1592  41.1662 0000609 268.9169  91.1771 15.49319971  4996
STARLINK-31825          
1 60056U 24112U   24189.25001157  .00017386  00000+0  44404-3 0  9995
2 60056  53.1588  39.6342 0002186  80.0089  83.6204 15.39591289  5312
STARLINK-31437          
1 60057U 24112V   24189.25001157 -.00011232  00000+0 -27151-3 0  9992
2 60057  53.1594  39.4288 0001530  72.3435 194.3056 15.39588338  5471
STARLINK-11181 [DTC]    
1 60059U 24113A   24188.87207368  .00447190  00000+0  25508-2 0  9991
2 60059  53.1664 323.9395 0000941 290.2228  69.8692 15.77118225  3608
STARLINK-11176 [DTC]    
1 60060U 24113B   24189.18405047 -.00143757  00000+0 -89608-3 0  9998
2 60060  53.1674 322.3275 0002092 154.5088 205.6037 15.76552287  3855
STARLINK-11167 [DTC]    
1 60061U 24113C   24189.25001157  .00004510  00000+0  31505-4 0  9996
2 60061  53.1678 321.9415 0000794  43.6021 358.8160 15.76748730  3985
STARLINK-11166 [DTC]    
1 60062U 24113D   24189.17429093 -.00168482  00000+0 -10564-2 0  9992
2 60062  53.1682 322.2635 0003216  13.5163 346.5944 15.76493106  3959
STARLINK-11165 [DTC]    
1 60063U 24113E   24189.16960214  .00328755  00000+0  19168-2 0  9995
2 60063  53.1680 322.2319 0001284 110.2655 249.8504 15.76954414  3851
